NORAD_CAT_ID,OBJECT_NAME,OBJECT_TYPE,EPOCH,MEAN_MOTION,ECCENTRICITY,INCLINATION,RA_OF_ASC_NODE,ARG_OF_PERICENTER,MEAN_ANOMALY,BSTAR,MEAN_MOTION_DOT,MEAN_MOTION_DDOT,TLE_LINE0,TLE_LINE1,TLE_LINE2,SEMIMAJOR_AXIS,PERIOD,APOGEE,PERIGEE,DECAYED
51972.0,STARLINK-3671,PAYLOAD,2024-02-11 16:02:51,15.06410473,0.000137,53.0547,189.282,77.9883,282.1259,8.211e-05,9.42e-06,0.0,0 STARLINK-3671,1 51972U 22025S   24042.66864987  .00000942  00000-0  82110-4 0  9992,2 51972  53.0547 189.2820 0001370  77.9883 282.1259 15.06410473107922,6925.316,95.591,548.13,546.233,0.0
51972.0,STARLINK-3671,PAYLOAD,2024-02-12 14:20:25,15.0639958,0.0001304,53.0552,185.1114,88.1963,271.9176,4.6297e-05,4.08e-06,0.0,0 STARLINK-3671,1 51972U 22025S   24043.59751299  .00000408  00000-0  46297-4 0  9999,2 51972  53.0552 185.1114 0001304  88.1963 271.9176 15.06399580106961,6925.35,95.592,548.118,546.312,0.0
51972.0,STARLINK-3671,PAYLOAD,2024-02-12 19:07:02,15.06401496,0.0001278,53.0545,184.2168,90.1658,269.9477,6.7271e-05,7.21e-06,0.0,0 STARLINK-3671,1 51972U 22025S   24043.79655143  .00000721  00000-0  67271-4 0  9995,2 51972  53.0545 184.2168 0001278  90.1658 269.9477 15.06401496108093,6925.344,95.592,548.094,546.324,0.0
51972.0,STARLINK-3671,PAYLOAD,2024-02-13 14:13:31,15.06402528,0.000142,53.055,180.6392,85.2983,274.8168,-0.00013754,-2.33e-05,0.0,0 STARLINK-3671,1 51972U 22025S   24044.59272055 -.00002330  00000-0 -13754-3 0  9997,2 51972  53.0550 180.6392 0001420  85.2983 274.8168 15.06402528107114,6925.341,95.592,548.189,546.222,0.0
51972.0,STARLINK-3671,PAYLOAD,2024-02-13 19:00:07,15.06406014,0.0001591,53.0547,179.7496,73.0269,287.0894,-5.4017e-05,-1.086e-05,0.0,0 STARLINK-3671,1 51972U 22025S   24044.79175601 -.00001086  00000-0 -54017-4 0  9993,2 51972  53.0547 179.7496 0001591  73.0269 287.0894 15.06406014107144,6925.33,95.592,548.297,546.093,0.0
51972.0,STARLINK-3671,PAYLOAD,2024-02-14 09:19:59,15.06394926,0.000149,53.0547,177.0685,103.4794,256.6361,2.0508e-05,2.4e-07,0.0,0 STARLINK-3671,1 51972U 22025S   24045.38888335  .00000024  00000-0  20508-4 0  9991,2 51972  53.0547 177.0685 0001490 103.4794 256.6361 15.06394926108335,6925.364,95.592,548.261,546.197,0.0
51972.0,STARLINK-3671,PAYLOAD,2024-02-14 14:06:36,15.06400348,0.0001469,53.0549,176.1752,99.0583,261.0573,8.3142e-05,9.57e-06,0.0,0 STARLINK-3671,1 51972U 22025S   24045.58791894  .00000957  00000-0  83142-4 0  9994,2 51972  53.0549 176.1752 0001469  99.0583 261.0573 15.06400348107266,6925.347,95.592,548.23,546.195,0.0
51972.0,STARLINK-3671,PAYLOAD,2024-02-14 15:42:08,15.06404515,0.0001338,53.0531,175.8806,79.8616,280.2524,8.2759e-05,9.52e-06,0.0,0 STARLINK-3671,1 51972U 22025S   24045.65426377  .00000952  00000-0  82759-4 0  9991,2 51972  53.0531 175.8806 0001338  79.8616 280.2524 15.06404515108373,6925.335,95.592,548.126,546.273,0.0
51972.0,STARLINK-3671,PAYLOAD,2024-02-15 01:15:23,15.06397355,0.0001202,53.053,174.0945,90.1517,269.9609,-2.5648e-05,-6.63e-06,0.0,0 STARLINK-3671,1 51972U 22025S   24046.05235142 -.00000663  00000-0 -25648-4 0  9999,2 51972  53.0530 174.0945 0001202  90.1517 269.9609 15.06397355108431,6925.357,95.592,548.054,546.389,0.0
51972.0,STARLINK-3671,PAYLOAD,2024-02-15 07:37:33,15.06388267,0.0001401,53.0532,172.9051,95.3663,264.7486,8.9162e-05,1.046e-05,0.0,0 STARLINK-3671,1 51972U 22025S   24046.31774407  .00001046  00000-0  89162-4 0  9995,2 51972  53.0532 172.9051 0001401  95.3663 264.7486 15.06388267108470,6925.385,95.593,548.22,546.279,0.0
51972.0,STARLINK-3671,PAYLOAD,2024-02-15 13:59:42,15.06390689,0.0001352,53.0538,171.7134,93.8758,266.2385,-1.0976e-05,-4.45e-06,0.0,0 STARLINK-3671,1 51972U 22025S   24046.58313518 -.00000445  00000-0 -10976-4 0  9997,2 51972  53.0538 171.7134 0001352  93.8758 266.2385 15.06390689107417,6925.377,95.593,548.178,546.306,0.0
51972.0,STARLINK-3671,PAYLOAD,2024-02-15 15:35:15,15.06393178,0.0001504,53.0557,171.4153,98.4806,261.6354,1.5598e-05,-4.9e-07,0.0,0 STARLINK-3671,1 51972U 22025S   24046.64948013 -.00000049  00000-0  15598-4 0  9992,2 51972  53.0557 171.4153 0001504  98.4806 261.6354 15.06393178107422,6925.369,95.593,548.276,546.193,0.0
51972.0,STARLINK-3671,PAYLOAD,2024-02-16 12:17:15,15.06404052,0.0001541,53.0564,167.5434,96.4187,263.6977,8.5539e-05,9.93e-06,0.0,0 STARLINK-3671,1 51972U 22025S   24047.51198121  .00000993  00000-0  85539-4 0  9995,2 51972  53.0564 167.5434 0001541  96.4187 263.6977 15.06404052108652,6925.336,95.592,548.268,546.134,0.0
51972.0,STARLINK-3671,PAYLOAD,2024-02-16 13:52:47,15.06407236,0.0001476,53.0553,167.2451,94.2226,265.8932,0.00010034,1.214e-05,0.0,0 STARLINK-3671,1 51972U 22025S   24047.57832523  .00001214  00000-0  10034-3 0  9996,2 51972  53.0553 167.2451 0001476  94.2226 265.8932 15.06407236107564,6925.326,95.592,548.214,546.169,0.0
51972.0,STARLINK-3671,PAYLOAD,2024-02-16 17:03:51,15.06411553,0.0001431,53.0547,166.6481,91.7921,268.3232,0.00015241,1.99e-05,0.0,0 STARLINK-3671,1 51972U 22025S   24047.71101459  .00001990  00000-0  15241-3 0  9995,2 51972  53.0547 166.6481 0001431  91.7921 268.3232 15.06411553108680,6925.313,95.591,548.169,546.187,0.0
51972.0,STARLINK-3671,PAYLOAD,2024-02-17 12:10:21,15.06386949,0.000162,53.055,163.0745,94.507,265.6104,5.6576e-05,5.61e-06,0.0,0 STARLINK-3671,1 51972U 22025S   24048.50719900  .00000561  00000-0  56576-4 0  9999,2 51972  53.0550 163.0745 0001620  94.5070 265.6104 15.06386949108806,6925.389,95.593,548.375,546.132,0.0
51972.0,STARLINK-3671,PAYLOAD,2024-02-17 13:45:54,15.06391285,0.0001595,53.055,162.7756,87.789,272.3282,1.906e-05,2e-08,0.0,0 STARLINK-3671,1 51972U 22025S   24048.57354425  .00000002  00000-0  19060-4 0  9990,2 51972  53.0550 162.7756 0001595  87.7890 272.3282 15.06391285107719,6925.375,95.593,548.345,546.136,0.0
51972.0,STARLINK-3671,PAYLOAD,2024-02-17 16:56:58,15.0639417,0.000159,53.0548,162.1785,87.6889,272.4282,5.0945e-05,4.77e-06,0.0,0 STARLINK-3671,1 51972U 22025S   24048.70623499  .00000477  00000-0  50945-4 0  9998,2 51972  53.0548 162.1785 0001590  87.6889 272.4282 15.06394170108835,6925.366,95.593,548.333,546.13,0.0
51972.0,STARLINK-3671,PAYLOAD,2024-02-18 00:54:39,15.06413115,0.0001531,53.0551,160.6888,76.4818,283.6342,-0.00020507,-3.336e-05,0.0,0 STARLINK-3671,1 51972U 22025S   24049.03796112 -.00003336  00000-0 -20507-3 0  9997,2 51972  53.0551 160.6888 0001531  76.4818 283.6342 15.06413115108886,6925.308,95.591,548.234,546.113,0.0
51972.0,STARLINK-3671,PAYLOAD,2024-02-18 13:38:57,15.06420277,0.0001666,53.0545,158.3071,76.551,283.5665,0.00013268,1.696e-05,0.0,0 STARLINK-3671,1 51972U 22025S   24049.56872622  .00001696  00000-0  13268-3 0  9997,2 51972  53.0545 158.3071 0001666  76.5510 283.5665 15.06420277107867,6925.286,95.591,548.305,545.998,0.0
51972.0,STARLINK-3671,PAYLOAD,2024-02-19 11:56:32,15.06396322,0.0001526,53.0531,154.1378,81.2617,278.8545,6.6123e-05,7.03e-06,0.0,0 STARLINK-3671,1 51972U 22025S   24050.49759756  .00000703  00000-0  66123-4 0  9990,2 51972  53.0531 154.1378 0001526  81.2617 278.8545 15.06396322109108,6925.36,95.592,548.282,546.168,0.0
51972.0,STARLINK-3671,PAYLOAD,2024-02-19 13:32:04,15.06396369,0.0001585,53.053,153.8408,70.1427,289.9733,4.0634e-05,3.24e-06,0.0,0 STARLINK-3671,1 51972U 22025S   24050.56394502  .00000324  00000-0  40634-4 0  9990,2 51972  53.0530 153.8408 0001585  70.1427 289.9733 15.06396369108010,6925.36,95.592,548.322,546.127,0.0
51972.0,STARLINK-3671,PAYLOAD,2024-02-20 13:25:10,15.06402105,0.0001504,53.0552,149.3756,87.5207,272.5954,8.5633e-05,9.94e-06,0.0,0 STARLINK-3671,1 51972U 22025S   24051.55914503  .00000994  00000-0  85633-4 0  9990,2 51972  53.0552 149.3756 0001504  87.5207 272.5954 15.06402105108164,6925.342,95.592,548.249,546.166,0.0
51972.0,STARLINK-3671,PAYLOAD,2024-02-21 11:42:42,15.06436776,0.0001491,53.0559,145.2097,110.7887,249.3261,-0.00050295,-7.772e-05,0.0,0 STARLINK-3671,1 51972U 22025S   24052.48798847 -.00007772  00000-0 -50295-3 0  9992,2 51972  53.0559 145.2097 0001491 110.7887 249.3261 15.06436776109404,6925.236,95.59,548.133,546.068,0.0
51972.0,STARLINK-3671,PAYLOAD,2024-02-21 13:18:15,15.06392822,0.0001672,53.0555,144.9099,107.8076,252.3095,0.00020754,2.81e-05,0.0,0 STARLINK-3671,1 51972U 22025S   24052.55435112  .00002810  00000-0  20754-3 0  9996,2 51972  53.0555 144.9099 0001672 107.8076 252.3095 15.06392822108317,6925.371,95.593,548.393,546.078,0.0
51972.0,STARLINK-3671,PAYLOAD,2024-02-22 13:11:21,15.06398999,0.0001547,53.0547,140.4416,105.3477,254.7683,4.7868e-05,4.32e-06,0.0,0 STARLINK-3671,1 51972U 22025S   24053.54955530  .00000432  00000-0  47868-4 0  9991,2 51972  53.0547 140.4416 0001547 105.3477 254.7683 15.06398999108467,6925.352,95.592,548.288,546.145,0.0
51972.0,STARLINK-3671,PAYLOAD,2024-02-23 11:28:54,15.06409713,0.000128,53.0544,136.2693,86.5941,273.5195,3.9892e-05,3.13e-06,0.0,0 STARLINK-3671,1 51972U 22025S   24054.47840395  .00000313  00000-0  39892-4 0  9992,2 51972  53.0544 136.2693 0001280  86.5941 273.5195 15.06409713109706,6925.319,95.592,548.07,546.297,0.0
51972.0,STARLINK-3671,PAYLOAD,2024-02-23 22:37:40,15.0640527,0.0001324,53.0538,134.1838,86.452,273.662,9.2723e-05,1.1e-05,0.0,0 STARLINK-3671,1 51972U 22025S   24054.94283190  .00001100  00000-0  92723-4 0  9995,2 51972  53.0538 134.1838 0001324  86.4520 273.6620 15.06405270108671,6925.332,95.592,548.114,546.28,0.0
51972.0,STARLINK-3671,PAYLOAD,2024-02-24 11:22:00,15.06398188,0.0001317,53.0539,131.8006,89.885,270.229,4.9376e-05,4.54e-06,0.0,0 STARLINK-3671,1 51972U 22025S   24055.47361386  .00000454  00000-0  49376-4 0  9995,2 51972  53.0539 131.8006 0001317  89.8850 270.2290 15.06398188109854,6925.354,95.592,548.131,546.307,0.0
51972.0,STARLINK-3671,PAYLOAD,2024-02-25 14:26:09,15.06413022,0.0001413,53.0546,126.736,86.0052,274.1099,9.7456e-05,1.171e-05,0.0,0 STARLINK-3671,1 51972U 22025S   24056.60149837  .00001171  00000-0  97456-4 0  9995,2 51972  53.0546 126.7360 0001413  86.0052 274.1099 15.06413022108920,6925.309,95.591,548.152,546.195,0.0
